NORAD_CAT_ID,OBJECT_NAME,OBJECT_TYPE,EPOCH,MEAN_MOTION,ECCENTRICITY,INCLINATION,RA_OF_ASC_NODE,ARG_OF_PERICENTER,MEAN_ANOMALY,BSTAR,MEAN_MOTION_DOT,MEAN_MOTION_DDOT,TLE_LINE0,TLE_LINE1,TLE_LINE2,SEMIMAJOR_AXIS,PERIOD,APOGEE,PERIGEE,DECAYED
54061.0,STARLINK-5209,PAYLOAD,2024-06-03 17:30:35,15.08851265,0.0001836,53.217,319.5699,89.0144,271.1059,0.00036914,5.593e-05,0.0,0 STARLINK-5209,1 54061U 22136L   24155.72958255  .00005593  00000-0  36914-3 0  9998,2 54061  53.2170 319.5699 0001836  89.0144 271.1059 15.08851265 90603,6917.846,95.437,540.981,538.441,0.0
54061.0,STARLINK-5209,PAYLOAD,2024-06-03 20:41:22,15.08849958,0.0001743,53.2171,318.9756,92.5728,267.5464,0.00030703,4.603e-05,0.0,0 STARLINK-5209,1 54061U 22136L   24155.86206231  .00004603  00000-0  30703-3 0  9994,2 54061  53.2171 318.9756 0001743  92.5728 267.5464 15.08849958 90149,6917.85,95.437,540.921,538.509,0.0
54061.0,STARLINK-5209,PAYLOAD,2024-06-04 20:32:09,15.08845069,0.0001685,53.2142,314.5148,86.2988,273.8197,0.00012588,1.716e-05,0.0,0 STARLINK-5209,1 54061U 22136L   24156.85566127  .00001716  00000-0  12588-3 0  9990,2 54061  53.2142 314.5148 0001685  86.2988 273.8197 15.08845069 90778,6917.865,95.437,540.896,538.564,0.0
54061.0,STARLINK-5209,PAYLOAD,2024-06-05 10:50:37,15.08833072,0.0001611,53.2125,311.8378,85.4984,274.6192,-3.4216e-05,-8.32e-06,0.0,0 STARLINK-5209,1 54061U 22136L   24157.45182777 -.00000832  00000-0 -34216-4 0  9995,2 54061  53.2125 311.8378 0001611  85.4984 274.6192 15.08833072 90865,6917.902,95.438,540.881,538.652,0.0
54061.0,STARLINK-5209,PAYLOAD,2024-06-06 02:44:29,15.08840174,0.0001967,53.2172,308.8655,87.5645,272.5572,-5.0566e-05,-1.093e-05,0.0,0 STARLINK-5209,1 54061U 22136L   24158.11422512 -.00001093  00000-0 -50566-4 0  9999,2 54061  53.2172 308.8655 0001967  87.5645 272.5572 15.08840174 90963,6917.88,95.438,541.106,538.384,0.0
54061.0,STARLINK-5209,PAYLOAD,2024-06-06 17:02:54,15.08893991,7.29e-05,53.2187,306.1878,63.2603,296.8464,0.00086442,0.00013516,0.0,0 STARLINK-5209,1 54061U 22136L   24158.71035877  .00013516  00000-0  86442-3 0  9991,2 54061  53.2187 306.1878 0000729  63.2603 296.8464 15.08893991 91052,6917.715,95.434,540.085,539.076,0.0
54061.0,STARLINK-5209,PAYLOAD,2024-06-07 08:56:49,15.08833154,0.0001117,53.2172,303.2165,73.1781,286.9333,-1.7527e-05,-5.67e-06,0.0,0 STARLINK-5209,1 54061U 22136L   24159.37279093 -.00000567  00000-0 -17527-4 0  9997,2 54061  53.2172 303.2165 0001117  73.1781 286.9333 15.08833154 91153,6917.901,95.438,540.539,538.994,0.0
54061.0,STARLINK-5209,PAYLOAD,2024-06-07 20:04:31,15.08841202,0.0001847,53.2161,301.1328,95.069,265.0512,0.00010273,1.347e-05,0.0,0 STARLINK-5209,1 54061U 22136L   24159.83647070  .00001347  00000-0  10273-3 0  9997,2 54061  53.2161 301.1328 0001847  95.0690 265.0512 15.08841202 90745,6917.877,95.437,541.019,538.464,0.0
54061.0,STARLINK-5209,PAYLOAD,2024-06-08 02:26:03,15.08843553,0.0001243,53.2132,299.942,78.0364,282.0767,0.00016647,2.363e-05,0.0,0 STARLINK-5209,1 54061U 22136L   24160.10142670  .00002363  00000-0  16647-3 0  9995,2 54061  53.2132 299.9420 0001243  78.0364 282.0767 15.08843553 91269,6917.87,95.437,540.594,538.875,0.0
54061.0,STARLINK-5209,PAYLOAD,2024-06-08 08:47:35,15.0884395,0.0001394,53.2135,298.7528,79.9914,280.1235,0.00014632,2.042e-05,0.0,0 STARLINK-5209,1 54061U 22136L   24160.36638685  .00002042  00000-0  14632-3 0  9995,2 54061  53.2135 298.7528 0001394  79.9914 280.1235 15.08843950 90827,6917.868,95.437,540.698,538.769,0.0
54061.0,STARLINK-5209,PAYLOAD,2024-06-09 08:38:23,15.08836671,0.0002329,53.2111,294.2937,67.9428,292.1812,0.00025338,3.746e-05,0.0,0 STARLINK-5209,1 54061U 22136L   24161.35999215  .00003746  00000-0  25338-3 0  9991,2 54061  53.2111 294.2937 0002329  67.9428 292.1812 15.08836671 91458,6917.891,95.438,541.367,538.144,0.0
54061.0,STARLINK-5209,PAYLOAD,2024-06-09 14:59:56,15.0882808,0.000138,53.2119,293.1042,65.1453,294.9683,1.4916e-05,-5.1e-07,0.0,0 STARLINK-5209,1 54061U 22136L   24161.62495424 -.00000051  00000-0  14916-4 0  9992,2 54061  53.2119 293.1042 0001380  65.1453 294.9683 15.08828080 91018,6917.917,95.438,540.736,538.827,0.0
54061.0,STARLINK-5209,PAYLOAD,2024-06-10 13:15:19,15.08842274,0.0001562,53.2144,288.9429,72.5151,287.6012,0.00014721,2.056e-05,0.0,0 STARLINK-5209,1 54061U 22136L   24162.55231023  .00002056  00000-0  14721-3 0  9997,2 54061  53.2144 288.9429 0001562  72.5151 287.6012 15.08842274 91630,6917.873,95.437,540.819,538.658,0.0
54061.0,STARLINK-5209,PAYLOAD,2024-06-10 19:36:51,15.0885781,0.0001454,53.2153,287.7523,81.6373,278.4784,0.00033891,5.112e-05,0.0,0 STARLINK-5209,1 54061U 22136L   24162.81726283  .00005112  00000-0  33891-3 0  9998,2 54061  53.2153 287.7523 0001454  81.6373 278.4784 15.08857810 91679,6917.826,95.436,540.697,538.685,0.0
54061.0,STARLINK-5209,PAYLOAD,2024-06-11 01:58:25,15.08833235,0.0001456,53.2158,286.5651,67.4307,292.6839,0.0002296,3.367e-05,0.0,0 STARLINK-5209,1 54061U 22136L   24163.08223531  .00003367  00000-0  22960-3 0  9991,2 54061  53.2158 286.5651 0001456  67.4307 292.6839 15.08833235 91713,6917.901,95.438,540.773,538.759,0.0
54061.0,STARLINK-5209,PAYLOAD,2024-06-11 14:41:29,15.08847791,0.0001463,53.217,284.1863,75.5175,284.598,0.00032373,4.869e-05,0.0,0 STARLINK-5209,1 54061U 22136L   24163.61215145  .00004869  00000-0  32373-3 0  9999,2 54061  53.2170 284.1863 0001463  75.5175 284.5980 15.08847791 91312,6917.857,95.437,540.734,538.709,0.0
54061.0,STARLINK-5209,PAYLOAD,2024-06-12 12:56:54,15.08836708,0.0001305,53.2163,280.0227,77.2258,282.888,2.9366e-05,1.79e-06,0.0,0 STARLINK-5209,1 54061U 22136L   24164.53951724  .00000179  00000-0  29366-4 0  9990,2 54061  53.2163 280.0227 0001305  77.2258 282.8880 15.08836708 91933,6917.89,95.438,540.658,538.853,0.0
54061.0,STARLINK-5209,PAYLOAD,2024-06-12 14:32:17,15.08836152,0.0001234,53.2162,279.7252,65.029,295.0831,-5.575e-05,-1.175e-05,0.0,0 STARLINK-5209,1 54061U 22136L   24164.60575683 -.00001175  00000-0 -55750-4 0  9999,2 54061  53.2162 279.7252 0001234  65.0290 295.0831 15.08836152 91460,6917.892,95.438,540.611,538.903,0.0
54061.0,STARLINK-5209,PAYLOAD,2024-06-13 14:23:04,15.08848175,0.0001178,53.2158,275.2641,76.6369,283.4755,0.00028146,4.195e-05,0.0,0 STARLINK-5209,1 54061U 22136L   24165.59935478  .00004195  00000-0  28146-3 0  9991,2 54061  53.2158 275.2641 0001178  76.6369 283.4755 15.08848175 91611,6917.855,95.437,540.535,538.905,0.0
54061.0,STARLINK-5209,PAYLOAD,2024-06-14 14:13:51,15.08840011,0.0001274,53.2163,270.8079,110.1601,249.9529,0.00011515,1.545e-05,0.0,0 STARLINK-5209,1 54061U 22136L   24166.59295823  .00001545  00000-0  11515-3 0  9993,2 54061  53.2163 270.8079 0001274 110.1601 249.9529 15.08840011 91766,6917.88,95.438,540.627,538.864,0.0
54061.0,STARLINK-5209,PAYLOAD,2024-06-15 14:04:38,15.08851472,0.0001223,53.2168,266.346,96.543,263.5702,0.00021895,3.199e-05,0.0,0 STARLINK-5209,1 54061U 22136L   24167.58655191  .00003199  00000-0  21895-3 0  9990,2 54061  53.2168 266.3460 0001223  96.5430 263.5702 15.08851472 91911,6917.845,95.437,540.556,538.864,0.0
54061.0,STARLINK-5209,PAYLOAD,2024-06-16 13:55:25,15.08844314,0.0001308,53.2165,261.8832,84.8466,275.2676,5.063e-05,5.18e-06,0.0,0 STARLINK-5209,1 54061U 22136L   24168.58015419  .00000518  00000-0  50630-4 0  9996,2 54061  53.2165 261.8832 0001308  84.8466 275.2676 15.08844314 92068,6917.867,95.437,540.637,538.827,0.0
54061.0,STARLINK-5209,PAYLOAD,2024-06-17 12:10:49,15.08839302,0.000113,53.215,257.719,100.9078,259.2042,-6.6326e-05,-1.343e-05,0.0,0 STARLINK-5209,1 54061U 22136L   24169.50751628 -.00001343  00000-0 -66326-4 0  9996,2 54061  53.2150 257.7190 0001130 100.9078 259.2042 15.08839302 92201,6917.883,95.438,540.529,538.966,0.0
54061.0,STARLINK-5209,PAYLOAD,2024-06-18 12:01:36,15.08840768,0.0001246,53.2161,253.2603,82.6375,277.4759,9.6957e-05,1.256e-05,0.0,0 STARLINK-5209,1 54061U 22136L   24170.50111829  .00001256  00000-0  96957-4 0  9995,2 54061  53.2161 253.2603 0001246  82.6375 277.4759 15.08840768 92358,6917.878,95.438,540.605,538.881,0.0
54061.0,STARLINK-5209,PAYLOAD,2024-06-19 05:30:51,15.08837982,0.0001232,53.2154,249.9898,85.8359,274.2773,0.00010097,1.319e-05,0.0,0 STARLINK-5209,1 54061U 22136L   24171.22976054  .00001319  00000-0  10097-3 0  9994,2 54061  53.2154 249.9898 0001232  85.8359 274.2773 15.08837982 92940,6917.887,95.438,540.604,538.899,0.0
54061.0,STARLINK-5209,PAYLOAD,2024-06-19 11:52:23,15.08841253,0.0001126,53.2158,248.7996,88.511,271.6011,0.00011067,1.474e-05,0.0,0 STARLINK-5209,1 54061U 22136L   24171.49471833  .00001474  00000-0  11067-3 0  9998,2 54061  53.2158 248.7996 0001126  88.5110 271.6011 15.08841253 92501,6917.877,95.437,540.521,538.963,0.0
54061.0,STARLINK-5209,PAYLOAD,2024-06-20 11:43:10,15.08843069,0.0001244,53.2163,244.3382,91.7999,268.3136,7.027e-05,8.31e-06,0.0,0 STARLINK-5209,1 54061U 22136L   24172.48831834  .00000831  00000-0  70270-4 0  9997,2 54061  53.2163 244.3382 0001244  91.7999 268.3136 15.08843069 92654,6917.871,95.437,540.597,538.875,0.0
54061.0,STARLINK-5209,PAYLOAD,2024-06-20 14:53:56,15.0884431,0.0001236,53.2161,243.7431,91.2891,268.8243,7.5033e-05,9.07e-06,0.0,0 STARLINK-5209,1 54061U 22136L   24172.62079701  .00000907  00000-0  75033-4 0  9996,2 54061  53.2161 243.7431 0001236  91.2891 268.8243 15.08844310 93157,6917.867,95.437,540.587,538.877,0.0
54061.0,STARLINK-5209,PAYLOAD,2024-06-21 05:12:25,15.08834433,0.0001314,53.2165,241.0669,91.5242,268.5901,-3.5167e-06,-3.44e-06,0.0,0 STARLINK-5209,1 54061U 22136L   24173.21696607 -.00000344  00000-0 -35167-5 0  9994,2 54061  53.2165 241.0669 0001314  91.5242 268.5901 15.08834433 93248,6917.897,95.438,540.671,538.853,0.0
54061.0,STARLINK-5209,PAYLOAD,2024-06-21 09:58:35,15.08836349,0.0001333,53.2167,240.175,91.4787,268.6358,7.1428e-06,-1.74e-06,0.0,0 STARLINK-5209,1 54061U 22136L   24173.41568470 -.00000174  00000-0  71428-5 0  9992,2 54061  53.2167 240.1750 0001333  91.4787 268.6358 15.08836349 92799,6917.892,95.438,540.679,538.834,0.0
